{"type": "FeatureCollection", "features": [ {"type": "Feature", "properties": {"norad_id": 30134, "name": "FENGYUN 1C DEB", "group": "fengyun-1c-debris", "lat": 6.208364594196785, "lon": 6.8782176803065385, "alt_km": 863.5974806449249, "timestamp": "2025-12-14T20:40:32.045805+00:00", "meta": {"OBJECT_NAME": "FENGYUN 1C DEB", "OBJECT_ID": "1999-025SP", "EPOCH": "2025-12-14T07:07:32.764800", "MEAN_MOTION": 14.13350984, "ECCENTRICITY": 0.00190704, "INCLINATION": 98.6938, "RA_OF_ASC_NODE": 7.2834, "ARG_OF_PERICENTER": 179.0236, "MEAN_ANOMALY": 196.4211, "EPHEMERIS_TYPE": 0, "CLASSIFICATION_TYPE": "U", "NORAD_CAT_ID": 30134, "ELEMENT_SET_NO": 999, "REV_AT_EPOCH": 97268, "BSTAR": 0.00058664801, "MEAN_MOTION_DOT": 1.06e-05, "MEAN_MOTION_DDOT": 0}, "tle": {"line1": "1 30134U 99025SP  25348.29690700  .00001060  00000+0  58665-3 0  9990", "line2": "2 30134  98.6938   7.2834 0019070 179.0236 196.4211 14.13350984972689"}}, "geometry": {"type": "Point", "coordinates": [6.8782176803065385, 6.208364594196785]}}, {"type": "Feature", "properties": {"norad_id": 30136, "name": "FENGYUN 1C DEB", "group": "fengyun-1c-debris", "lat": -60.53731552545789, "lon": 46.11579139147775, "alt_km": 1011.4204307128839, "timestamp": "2025-12-14T20:40:32.045816+00:00", "meta": {"OBJECT_NAME": "FENGYUN 1C DEB", "OBJECT_ID": "1999-025SR", "EPOCH": "2025-12-14T04:45:01.814688", "MEAN_MOTION": 13.95326747, "ECCENTRICITY": 0.01294229, "INCLINATION": 98.5565, "RA_OF_ASC_NODE": 240.9562, "ARG_OF_PERICENTER": 65.4807, "MEAN_ANOMALY": 84.8512, "EPHEMERIS_TYPE": 0, "CLASSIFICATION_TYPE": "U", "NORAD_CAT_ID": 30136, "ELEMENT_SET_NO": 999, "REV_AT_EPOCH": 96111, "BSTAR": 0.00041256156, "MEAN_MOTION_DOT": 5.6e-06, "MEAN_MOTION_DDOT": 0}, "tle": {"line1": "1 30136U 99025SR  25348.19793767  .00000560  00000+0  41256-3 0  9990", "line2": "2 30136  98.5565 240.9562 0129422  65.4807  84.8512 13.95326747961114"}}, "geometry": {"type": "Point", "coordinates": [46.11579139147775, -60.53731552545789]}}, {"type": "Feature", "properties": {"norad_id": 30138, "name": "FENGYUN 1C DEB", "group": "fengyun-1c-debris", "lat": 20.24430425775212, "lon": -134.63812624590196, "alt_km": 812.0491286777096, "timestamp": "2025-12-14T20:40:32.045826+00:00", "meta": {"OBJECT_NAME": "FENGYUN 1C DEB", "OBJECT_ID": "1999-025ST", "EPOCH": "2025-12-14T03:08:44.632896", "MEAN_MOTION": 14.20033923, "ECCENTRICITY": 0.00204465, "INCLINATION": 98.7595, "RA_OF_ASC_NODE": 41.3792, "ARG_OF_PERICENTER": 134.5514, "MEAN_ANOMALY": 252.8944, "EPHEMERIS_TYPE": 0, "CLASSIFICATION_TYPE": "U", "NORAD_CAT_ID": 30138, "ELEMENT_SET_NO": 999, "REV_AT_EPOCH": 97421, "BSTAR": 0.00099844747, "MEAN_MOTION_DOT": 2.086e-05, "MEAN_MOTION_DDOT": 0}, "tle": {"line1": "1 30138U 99025ST  25348.13107214  .00002086  00000+0  99845-3 0  9994", "line2": "2 30138  98.7595  41.3792 0020446 134.5514 252.8944 14.20033923974219"}}, "geometry": {"type": "Point", "coordinates": [-134.63812624590196, 20.24430425775212]}}, {"type": "Feature", "properties": {"norad_id": 30139, "name": "FENGYUN 1C DEB", "group": "fengyun-1c-debris", "lat": -51.19281218398751, "lon": 1.7389810448121992, "alt_km": 829.5056943104364, "timestamp": "2025-12-14T20:40:32.045836+00:00", "meta": {"OBJECT_NAME": "FENGYUN 1C DEB", "OBJECT_ID": "1999-025SU", "EPOCH": "2025-12-14T03:03:56.743776", "MEAN_MOTION": 14.03660079, "ECCENTRICITY": 0.01309402, "INCLINATION": 98.3653, "RA_OF_ASC_NODE": 191.6057, "ARG_OF_PERICENTER": 286.5609, "MEAN_ANOMALY": 200.859, "EPHEMERIS_TYPE": 0, "CLASSIFICATION_TYPE": "U", "NORAD_CAT_ID": 30139, "ELEMENT_SET_NO": 999, "REV_AT_EPOCH": 96269, "BSTAR": 0.0013304618, "MEAN_MOTION_DOT": 2.215e-05, "MEAN_MOTION_DDOT": 0}, "tle": {"line1": "1 30139U 99025SU  25348.12774009  .00002215  00000+0  13305-2 0  9996", "line2": "2 30139  98.3653 191.6057 0130940 286.5609 200.8590 14.03660079962696"}}, "geometry": {"type": "Point", "coordinates": [1.7389810448121992, -51.19281218398751]}}, {"type": "Feature", "properties": {"norad_id": 30140, "name": "FENGYUN 1C DEB", "group": "fengyun-1c-debris", "lat": -19.889921917742207, "lon": 54.95168700686904, "alt_km": 804.2788115666108, "timestamp": "2025-12-14T20:40:32.045847+00:00", "meta": {"OBJECT_NAME": "FENGYUN 1C DEB", "OBJECT_ID": "1999-025SV", "EPOCH": "2025-12-12T02:59:27.700224", "MEAN_MOTION": 14.20742777, "ECCENTRICITY": 0.00405813, "INCLINATION": 98.8269, "RA_OF_ASC_NODE": 48.9963, "ARG_OF_PERICENTER": 311.5162, "MEAN_ANOMALY": 77.8073, "EPHEMERIS_TYPE": 0, "CLASSIFICATION_TYPE": "U", "NORAD_CAT_ID": 30140, "ELEMENT_SET_NO": 999, "REV_AT_EPOCH": 97135, "BSTAR": 0.0020096414, "MEAN_MOTION_DOT": 4.328e-05, "MEAN_MOTION_DDOT": 0}, "tle": {"line1": "1 30140U 99025SV  25346.12462616  .00004328  00000+0  20096-2 0  9996", "line2": "2 30140  98.8269  48.9963 0040581 311.5162  77.8073 14.20742777971356"}}, "geometry": {"type": "Point", "coordinates": [54.95168700686904, -19.889921917742207]}}, {"type": "Feature", "properties": {"norad_id": 30141, "name": "FENGYUN 1C DEB", "group": "fengyun-1c-debris", "lat": -80.95754393203764, "lon": -3.286545785384344, "alt_km": 734.4765044103942, "timestamp": "2025-12-14T20:40:32.045857+00:00", "meta": {"OBJECT_NAME": "FENGYUN 1C DEB", "OBJECT_ID": "1999-025SW", "EPOCH": "2025-12-14T01:14:06.169920", "MEAN_MOTION": 14.51607411, "ECCENTRICITY": 0.00194257, "INCLINATION": 99.0142, "RA_OF_ASC_NODE": 269.9162, "ARG_OF_PERICENTER": 32.8034, "MEAN_ANOMALY": 327.436, "EPHEMERIS_TYPE": 0, "CLASSIFICATION_TYPE": "U", "NORAD_CAT_ID": 30141, "ELEMENT_SET_NO": 999, "REV_AT_EPOCH": 98263, "BSTAR": 0.0029508864, "MEAN_MOTION_DOT": 0.00011819, "MEAN_MOTION_DDOT": 0}, "tle": {"line1": "1 30141U 99025SW  25348.05146030  .00011819  00000+0  29509-2 0  9991", "line2": "2 30141  99.0142 269.9162 0019425  32.8034 327.4360 14.51607411982635"}}, "geometry": {"type": "Point", "coordinates": [-3.286545785384344, -80.95754393203764]}}, {"type": "Feature", "properties": {"norad_id": 30142, "name": "FENGYUN 1C DEB", "group": "fengyun-1c-debris", "lat": 11.865168866115248, "lon": -113.39471661963645, "alt_km": 909.7342969691981, "timestamp": "2025-12-14T20:40:32.045867+00:00", "meta": {"OBJECT_NAME": "FENGYUN 1C DEB", "OBJECT_ID": "1999-025SX", "EPOCH": "2025-12-14T04:33:05.568192", "MEAN_MOTION": 14.10491914, "ECCENTRICITY": 0.01012886, "INCLINATION": 99.1285, "RA_OF_ASC_NODE": 63.9874, "ARG_OF_PERICENTER": 304.0795, "MEAN_ANOMALY": 55.0793, "EPHEMERIS_TYPE": 0, "CLASSIFICATION_TYPE": "U", "NORAD_CAT_ID": 30142, "ELEMENT_SET_NO": 999, "REV_AT_EPOCH": 96319, "BSTAR": 0.0018527527, "MEAN_MOTION_DOT": 3.414e-05, "MEAN_MOTION_DDOT": 0}, "tle": {"line1": "1 30142U 99025SX  25348.18964778  .00003414  00000+0  18528-2 0  9994", "line2": "2 30142  99.1285  63.9874 0101288 304.0795  55.0793 14.10491914963192"}}, "geometry": {"type": "Point", "coordinates": [-113.39471661963645, 11.865168866115248]}}, {"type": "Feature", "properties": {"norad_id": 30143, "name": "FENGYUN 1C DEB", "group": "fengyun-1c-debris", "lat": 39.517190678054845, "lon": 164.7788660174697, "alt_km": 913.144707177632, "timestamp": "2025-12-14T20:40:32.045877+00:00", "meta": {"OBJECT_NAME": "FENGYUN 1C DEB", "OBJECT_ID": "1999-025SY", "EPOCH": "2025-12-14T02:15:49.548672", "MEAN_MOTION": 14.02589557, "ECCENTRICITY": 0.01037309, "INCLINATION": 98.7349, "RA_OF_ASC_NODE": 171.3285, "ARG_OF_PERICENTER": 287.1265, "MEAN_ANOMALY": 200.4624, "EPHEMERIS_TYPE": 0, "CLASSIFICATION_TYPE": "U", "NORAD_CAT_ID": 30143, "ELEMENT_SET_NO": 999, "REV_AT_EPOCH": 96238, "BSTAR": 0.0014713182, "MEAN_MOTION_DOT": 2.335e-05, "MEAN_MOTION_DDOT": 0}, "tle": {"line1": "1 30143U 99025SY  25348.09432348  .00002335  00000+0  14713-2 0  9991", "line2": "2 30143  98.7349 171.3285 0103730 287.1265 200.4624 14.02589557962387"}}, "geometry": {"type": "Point", "coordinates": [164.7788660174697, 39.517190678054845]}}, {"type": "Feature", "properties": {"norad_id": 30144, "name": "FENGYUN 1C DEB", "group": "fengyun-1c-debris", "lat": 7.214210237964134, "lon": -19.569545093509003, "alt_km": 910.8523275062798, "timestamp": "2025-12-14T20:40:32.045887+00:00", "meta": {"OBJECT_NAME": "FENGYUN 1C DEB", "OBJECT_ID": "1999-025SZ", "EPOCH": "2025-12-13T22:31:33.293856", "MEAN_MOTION": 13.91820607, "ECCENTRICITY": 0.01257366, "INCLINATION": 99.0099, "RA_OF_ASC_NODE": 340.6846, "ARG_OF_PERICENTER": 287.5346, "MEAN_ANOMALY": 136.718, "EPHEMERIS_TYPE": 0, "CLASSIFICATION_TYPE": "U", "NORAD_CAT_ID": 30144, "ELEMENT_SET_NO": 999, "REV_AT_EPOCH": 95857, "BSTAR": 0.00074173083, "MEAN_MOTION_DOT": 9.63e-06, "MEAN_MOTION_DDOT": 0}, "tle": {"line1": "1 30144U 99025SZ  25347.93857979  .00000963  00000+0  74173-3 0  9997", "line2": "2 30144  99.0099 340.6846 0125736 287.5346 136.7180 13.91820607958577"}}, "geometry": {"type": "Point", "coordinates": [-19.569545093509003, 7.214210237964134]}}, {"type": "Feature", "properties": {"norad_id": 30145, "name": "FENGYUN 1C DEB", "group": "fengyun-1c-debris", "lat": -69.44152490839654, "lon": -107.29305746556115, "alt_km": 873.2564056235642, "timestamp": "2025-12-14T20:40:32.045897+00:00", "meta": {"OBJECT_NAME": "FENGYUN 1C DEB", "OBJECT_ID": "1999-025TA", "EPOCH": "2025-12-14T06:03:15.689088", "MEAN_MOTION": 14.14048385, "ECCENTRICITY": 0.00914385, "INCLINATION": 99.2691, "RA_OF_ASC_NODE": 97.8878, "ARG_OF_PERICENTER": 144.6567, "MEAN_ANOMALY": 246.3133, "EPHEMERIS_TYPE": 0, "CLASSIFICATION_TYPE": "U", "NORAD_CAT_ID": 30145, "ELEMENT_SET_NO": 999, "REV_AT_EPOCH": 96217, "BSTAR": 0.0034125863, "MEAN_MOTION_DOT": 6.713e-05, "MEAN_MOTION_DDOT": 0}, "tle": {"line1": "1 30145U 99025TA  25348.25226492  .00006713  00000+0  34126-2 0  9996", "line2": "2 30145  99.2691  97.8878 0091438 144.6567 246.3133 14.14048385962171"}}, "geometry": {"type": "Point", "coordinates": [-107.29305746556115, -69.44152490839654]}}]}